HAWK-C                  
1 43799U 18099AT  26068.67261865  .00009431  00000+0  35663-3 0  9994
2 43799  97.4027 122.6817 0040363 277.4052  82.2601 15.26407167398720
STARLINK-1554           
1 46055U 20055AE  26068.55436788  .00011659  00000+0  40484-3 0  9994
2 46055  53.1583 114.6651 0001418  88.5920 271.5243 15.30224882309053
